CCSDS_OEM_VERS = 1.0
CREATION_DATE  = 2017-05-11T12:06:58
ORIGINATOR     = GMAT USER

META_START
OBJECT_NAME          = MOPSSat_alt_35785_km_RAAN_270_155
OBJECT_ID            = SatId
CENTER_NAME          = Earth
REF_FRAME            = EME2000
TIME_SYSTEM          = UTC
START_TIME           = 2017-01-01T00:00:00.000
USEABLE_START_TIME   = 2017-01-01T00:00:00.000
USEABLE_STOP_TIME    = 2017-01-02T00:00:00.000
STOP_TIME            = 2017-01-02T00:00:00.000
INTERPOLATION        = Lagrange
INTERPOLATION_DEGREE = 7 
META_STOP


                                                                                   

2017-01-01T05:48:20.000   3.332416218176445e+04   3.795122881319150e+04   2.914373650724069e+03  -8.853835665630796e-01   2.347924972993642e+00  -7.750195883671140e-02
2017-01-01T05:48:30.000   3.331530321774819e+04   3.797470222081401e+04   2.913598182708895e+03  -8.864090866444391e-01   2.346756604497906e+00  -7.759163106768753e-02
2017-01-01T05:48:40.000   3.330643400352180e+04   3.799816394504125e+04   2.912821818408156e+03  -8.874336211564274e-01   2.345588326626961e+00  -7.768121704976542e-02
2017-01-01T05:48:50.000   3.329755454889465e+04   3.802161398688846e+04   2.912044558680289e+03  -8.884571711828601e-01   2.344420139580701e+00  -7.777071687778705e-02
2017-01-01T05:49:00.000   3.328866486366609e+04   3.804505234737086e+04   2.911266404382845e+03  -8.894797378058344e-01   2.343252043558227e+00  -7.786013064644451e-02
2017-01-01T05:49:10.000   3.327976495762859e+04   3.806847902749541e+04   2.910487356372786e+03  -8.905013221053759e-01   2.342084038758261e+00  -7.794945845024820e-02
2017-01-01T05:49:20.000   3.327085484057622e+04   3.809189402823671e+04   2.909707415507201e+03  -8.915219251583588e-01   2.340916125380331e+00  -7.803870038343309e-02
2017-01-01T05:49:30.000   3.326193452231224e+04   3.811529735051912e+04   2.908926582643999e+03  -8.925415480377683e-01   2.339748303625694e+00  -7.812785653989390e-02
2017-01-01T05:49:40.000   3.325300401262289e+04   3.813868899528529e+04   2.908144858639585e+03  -8.935601918156707e-01   2.338580573693902e+00  -7.821692701344493e-02
2017-01-01T05:49:50.000   3.324406332139589e+04   3.816206896318897e+04   2.907362244359254e+03  -8.945778575498922e-01   2.337412935798194e+00  -7.830591189665517e-02
2017-01-01T05:50:00.000   3.323511245847689e+04   3.818543725496753e+04   2.906578740664618e+03  -8.955945463001895e-01   2.336245390146850e+00  -7.839481128226239e-02
2017-01-01T05:50:10.000   3.322615143372284e+04   3.820879387130318e+04   2.905794348418281e+03  -8.966102591222298e-01   2.335077936950134e+00  -7.848362526264664e-02
2017-01-01T05:50:20.000   3.321718025679591e+04   3.823213881336049e+04   2.905009068465791e+03  -8.976249970909682e-01   2.333910576393436e+00  -7.857235393187435e-02
2017-01-01T05:50:30.000   3.320819893736897e+04   3.825547208225013e+04   2.904222901653638e+03  -8.986387612773253e-01   2.332743308664067e+00  -7.866099738365914e-02
2017-01-01T05:50:40.000   3.319920748507922e+04   3.827879367915067e+04   2.903435848825191e+03  -8.996515527534932e-01   2.331576133945184e+00  -7.874955571182567e-02
2017-01-01T05:50:50.000   3.319020590964329e+04   3.830210360500478e+04   2.902647910830764e+03  -9.006633725796864e-01   2.330409052430931e+00  -7.883802900915118e-02
2017-01-01T05:51:00.000   3.318119422077215e+04   3.832540186074528e+04   2.901859088520188e+03  -9.016742218140215e-01   2.329242064315195e+00  -7.892641736822940e-02
2017-01-01T05:51:10.000   3.317217242817068e+04   3.834868844729435e+04   2.901069382742750e+03  -9.026841015124661e-01   2.328075169791623e+00  -7.901472088146598e-02
2017-01-01T05:51:20.000   3.316314054162570e+04   3.837196336534124e+04   2.900278794354917e+03  -9.036930127192593e-01   2.326908369064827e+00  -7.910293964024090e-02
2017-01-01T05:51:30.000   3.315409857088789e+04   3.839522661564232e+04   2.899487324209990e+03  -9.047009564798708e-01   2.325741662335287e+00  -7.919107373604180e-02
2017-01-01T05:51:40.000   3.314504652571816e+04   3.841847819890276e+04   2.898694973162166e+03  -9.057079338358838e-01   2.324575049805305e+00  -7.927912326001635e-02
2017-01-01T05:51:50.000   3.313598441568348e+04   3.844171811630115e+04   2.897901742048664e+03  -9.067139458477287e-01   2.323408531652680e+00  -7.936708830495988e-02
2017-01-01T05:52:00.000   3.312691225036098e+04   3.846494636896467e+04   2.897107631707595e+03  -9.077189935719434e-01   2.322242108057036e+00  -7.945496896332752e-02
2017-01-01T05:52:10.000   3.311783003929201e+04   3.848816295808803e+04   2.896312642973941e+03  -9.087230780663373e-01   2.321075779193876e+00  -7.954276532768535e-02
2017-01-01T05:52:20.000   3.310873779209840e+04   3.851136788463104e+04   2.895516776689724e+03  -9.097262003768556e-01   2.319909545249698e+00  -7.963047748956201e-02
2017-01-01T05:52:30.000   3.309963551839657e+04   3.853456114954365e+04   2.894720033696493e+03  -9.107283615473728e-01   2.318743406410770e+00  -7.971810554030499e-02
2017-01-01T05:52:40.000   3.309052322779698e+04   3.855774275376507e+04   2.893922414835279e+03  -9.117295626196440e-01   2.317577362863143e+00  -7.980564957107625e-02
2017-01-01T05:52:50.000   3.308140092999311e+04   3.858091269800266e+04   2.893123920954380e+03  -9.127298046238057e-01   2.316411414803844e+00  -7.989310967202173e-02
2017-01-01T05:53:00.000   3.307226863464218e+04   3.860407098303049e+04   2.892324552898916e+03  -9.137290885912260e-01   2.315245562425798e+00  -7.998048593339514e-02
2017-01-01T05:53:10.000   3.306312635141291e+04   3.862721760956934e+04   2.891524311515018e+03  -9.147274155493329e-01   2.314079805923881e+00  -8.006777844510536e-02
2017-01-01T05:53:20.000   3.305397408977575e+04   3.865035257881772e+04   2.890723197631459e+03  -9.157247865445259e-01   2.312914145468183e+00  -8.015498729872023e-02
2017-01-01T05:53:30.000   3.304481185921311e+04   3.867347589191934e+04   2.889921212078063e+03  -9.167212026192056e-01   2.311748581230821e+00  -8.024211258545758e-02
2017-01-01T05:53:40.000   3.303563966916520e+04   3.869658755010064e+04   2.889118355680958e+03  -9.177166648177132e-01   2.310583113379020e+00  -8.032915439670499e-02
2017-01-01T05:53:50.000   3.302645752917545e+04   3.871968755430053e+04   2.888314629275304e+03  -9.187111741703323e-01   2.309417742093736e+00  -8.041611282262068e-02
2017-01-01T05:54:00.000   3.301726544877057e+04   3.874277590547613e+04   2.887510033694808e+03  -9.197047317065140e-01   2.308252467554290e+00  -8.050298795329008e-02
2017-01-01T05:54:10.000   3.300806343748844e+04   3.876585260453219e+04   2.886704569774144e+03  -9.206973384518281e-01   2.307087289941918e+00  -8.058977987845903e-02
2017-01-01T05:54:20.000   3.299885150486778e+04   3.878891765234924e+04   2.885898238348063e+03  -9.216889954292036e-01   2.305922209438386e+00  -8.067648868764242e-02
2017-01-01T05:54:30.000   3.298962966044254e+04   3.881197104979563e+04   2.885091040250902e+03  -9.226797036594316e-01   2.304757226225357e+00  -8.076311447016811e-02
2017-01-01T05:54:40.000   3.298039791373085e+04   3.883501279775535e+04   2.884282976315613e+03  -9.236694641623550e-01   2.303592340482989e+00  -8.084965731528077e-02
2017-01-01T05:54:50.000   3.297115627423053e+04   3.885804289714133e+04   2.883474047373367e+03  -9.246582779574792e-01   2.302427552389286e+00  -8.093611731219587e-02
2017-01-01T05:55:00.000   3.296190475140743e+04   3.888106134892198e+04   2.882664254252535e+03  -9.256461460650736e-01   2.301262862118736e+00  -8.102249455019513e-02
2017-01-01T05:55:10.000   3.295264335472383e+04   3.890406815405140e+04   2.881853597781184e+03  -9.266330695031990e-01   2.300098269845843e+00  -8.110878911836730e-02
2017-01-01T05:55:20.000   3.294337209351557e+04   3.892706331377154e+04   2.881042078776310e+03  -9.276190493006228e-01   2.298933775729804e+00  -8.119500110673716e-02
2017-01-01T05:55:30.000   3.293409097714080e+04   3.895004682924577e+04   2.880229698056857e+03  -9.286040864811530e-01   2.297769379933085e+00  -8.128113060489578e-02
2017-01-01T05:55:40.000   3.292480001492389e+04   3.897301870169761e+04   2.879416456438817e+03  -9.295881820695739e-01   2.296605082614408e+00  -8.136717770251935e-02
2017-01-01T05:55:50.000   3.291549921637253e+04   3.899597893187342e+04   2.878602354754233e+03  -9.305713370686319e-01   2.295440883955969e+00  -8.145314248735720e-02
2017-01-01T05:56:00.000   3.290618859096079e+04   3.901892752057966e+04   2.877787393832197e+03  -9.315535524820622e-01   2.294276784136225e+00  -8.153902504724479e-02
2017-01-01T05:56:10.000   3.289686814818499e+04   3.904186446854419e+04   2.876971574503752e+03  -9.325348293086376e-01   2.293112783336917e+00  -8.162482546958384e-02
2017-01-01T05:56:20.000   3.288753789741602e+04   3.906478977678373e+04   2.876154897588962e+03  -9.335151685579473e-01   2.291948881724477e+00  -8.171054384272158e-02
2017-01-01T05:56:30.000   3.287819784802106e+04   3.908770344630034e+04   2.875337363907568e+03  -9.344945712373658e-01   2.290785079465377e+00  -8.179618025481150e-02
2017-01-01T05:56:40.000   3.286884800933557e+04   3.911060547815149e+04   2.874518974276535e+03  -9.354730383550609e-01   2.289621376722601e+00  -8.188173479407641e-02
2017-01-01T05:56:50.000   3.285948839067359e+04   3.913349587342215e+04   2.873699729510950e+03  -9.364505709187780e-01   2.288457773657012e+00  -8.196720754870200e-02
2017-01-01T05:57:00.000   3.285011900133364e+04   3.915637463321272e+04   2.872879630424546e+03  -9.374271699353489e-01   2.287294270428009e+00  -8.205259860679397e-02
2017-01-01T05:57:10.000   3.284073985060975e+04   3.917924175861154e+04   2.872058677830659e+03  -9.384028364095223e-01   2.286130867194919e+00  -8.213790805627595e-02
2017-01-01T05:57:20.000   3.283135094779637e+04   3.920209725068152e+04   2.871236872542665e+03  -9.393775713433702e-01   2.284967564117658e+00  -8.222313598483716e-02
